{"type": "FeatureCollection", "features": [{"type": "Feature", "properties": {"norad_id": 26766, "name": "INTELSAT 10 (IS-10)", "group": "intelsat", "lat": -4.9825261690463, "lon": -84.15083666574955, "alt_km": 36093.86051024385, "timestamp": "2025-12-22T05:49:03.149977+00:00", "meta": {"OBJECT_NAME": "INTELSAT 10 (IS-10)", "OBJECT_ID": "2001-019A", "EPOCH": "2025-12-21T17:53:39.051168", "MEAN_MOTION": 0.99073842, "ECCENTRICITY": 0.0007736, "INCLINATION": 8.6495, "RA_OF_ASC_NODE": 61.0661, "ARG_OF_PERICENTER": 228.4282, "MEAN_ANOMALY": 169.4863, "EPHEMERIS_TYPE": 0, "CLASSIFICATION_TYPE": "U", "NORAD_CAT_ID": 26766, "ELEMENT_SET_NO": 999, "REV_AT_EPOCH": 4382, "BSTAR": 0, "MEAN_MOTION_DOT": -7.1e-07, "MEAN_MOTION_DDOT": 0}, "tle": {"line1": "1 26766U 01019A   25355.74559087 -.00000071  00000+0  00000+0 0  9990", "line2": "2 26766   8.6495  61.0661 0007736 228.4282 169.4863  0.99073842 43828"}}, "geometry": {"type": "Point", "coordinates": [-84.15083666574955, -4.9825261690463]}}, {"type": "Feature", "properties": {"norad_id": 26900, "name": "INTELSAT 902 (IS-902)", "group": "intelsat", "lat": 4.6172377255854125, "lon": 127.98290338785885, "alt_km": 35800.12390737399, "timestamp": "2025-12-22T05:49:03.150002+00:00", "meta": {"OBJECT_NAME": "INTELSAT 902 (IS-902)", "OBJECT_ID": "2001-039A", "EPOCH": "2025-12-15T13:09:02.081664", "MEAN_MOTION": 1.0027087, "ECCENTRICITY": 0.00045028, "INCLINATION": 5.6536, "RA_OF_ASC_NODE": 74.0372, "ARG_OF_PERICENTER": 189.6359, "MEAN_ANOMALY": 327.9329, "EPHEMERIS_TYPE": 0, "CLASSIFICATION_TYPE": "U", "NORAD_CAT_ID": 26900, "ELEMENT_SET_NO": 999, "REV_AT_EPOCH": 8885, "BSTAR": 0, "MEAN_MOTION_DOT": -2.65e-06, "MEAN_MOTION_DDOT": 0}, "tle": {"line1": "1 26900U 01039A   25349.54794076 -.00000265  00000+0  00000+0 0  9997", "line2": "2 26900   5.6536  74.0372 0004502 189.6359 327.9329  1.00270870 88858"}}, "geometry": {"type": "Point", "coordinates": [127.98290338785885, 4.6172377255854125]}}, {"type": "Feature", "properties": {"norad_id": 27380, "name": "INTELSAT 904 (IS-904)", "group": "intelsat", "lat": 6.288409777585564, "lon": 146.7099956834506, "alt_km": 35793.51419607265, "timestamp": "2025-12-22T05:49:03.150019+00:00", "meta": {"OBJECT_NAME": "INTELSAT 904 (IS-904)", "OBJECT_ID": "2002-007A", "EPOCH": "2025-12-21T11:20:13.445376", "MEAN_MOTION": 1.00270601, "ECCENTRICITY": 0.00018754, "INCLINATION": 6.475, "RA_OF_ASC_NODE": 71.332, "ARG_OF_PERICENTER": 249.2884, "MEAN_ANOMALY": 268.2201, "EPHEMERIS_TYPE": 0, "CLASSIFICATION_TYPE": "U", "NORAD_CAT_ID": 27380, "ELEMENT_SET_NO": 999, "REV_AT_EPOCH": 4998, "BSTAR": 0, "MEAN_MOTION_DOT": -2.08e-06, "MEAN_MOTION_DDOT": 0}, "tle": {"line1": "1 27380U 02007A   25355.47237784 -.00000208  00000+0  00000+0 0  9990", "line2": "2 27380   6.4750  71.3320 0001875 249.2884 268.2201  1.00270601 49986"}}, "geometry": {"type": "Point", "coordinates": [146.7099956834506, 6.288409777585564]}}, {"type": "Feature", "properties": {"norad_id": 27426, "name": "DIRECTV 5 (TEMPO 1)", "group": "intelsat", "lat": -0.6966259682273612, "lon": 68.2342899667593, "alt_km": 35797.921373340665, "timestamp": "2025-12-22T05:49:03.150033+00:00", "meta": {"OBJECT_NAME": "DIRECTV 5 (TEMPO 1)", "OBJECT_ID": "2002-023A", "EPOCH": "2025-12-21T16:05:53.587968", "MEAN_MOTION": 1.00271761, "ECCENTRICITY": 0.0003158, "INCLINATION": 4.4235, "RA_OF_ASC_NODE": 77.5485, "ARG_OF_PERICENTER": 199.36, "MEAN_ANOMALY": 304.9323, "EPHEMERIS_TYPE": 0, "CLASSIFICATION_TYPE": "U", "NORAD_CAT_ID": 27426, "ELEMENT_SET_NO": 999, "REV_AT_EPOCH": 8634, "BSTAR": 0, "MEAN_MOTION_DOT": -3.8e-07, "MEAN_MOTION_DDOT": 0}, "tle": {"line1": "1 27426U 02023A   25355.67075912 -.00000038  00000+0  00000+0 0  9995", "line2": "2 27426   4.4235  77.5485 0003158 199.3600 304.9323  1.00271761 86342"}}, "geometry": {"type": "Point", "coordinates": [68.2342899667593, -0.6966259682273612]}}, {"type": "Feature", "properties": {"norad_id": 27438, "name": "INTELSAT 905 (IS-905)", "group": "intelsat", "lat": -3.2173140728025453, "lon": 41.285732432402476, "alt_km": 35792.78166498638, "timestamp": "2025-12-22T05:49:03.150047+00:00", "meta": {"OBJECT_NAME": "INTELSAT 905 (IS-905)", "OBJECT_ID": "2002-027A", "EPOCH": "2025-12-21T11:38:50.085024", "MEAN_MOTION": 1.00272793, "ECCENTRICITY": 0.00026882, "INCLINATION": 6.3061, "RA_OF_ASC_NODE": 71.9555, "ARG_OF_PERICENTER": 203.6165, "MEAN_ANOMALY": 212.2349, "EPHEMERIS_TYPE": 0, "CLASSIFICATION_TYPE": "U", "NORAD_CAT_ID": 27438, "ELEMENT_SET_NO": 999, "REV_AT_EPOCH": 4958, "BSTAR": 0, "MEAN_MOTION_DOT": 1.12e-06, "MEAN_MOTION_DDOT": 0}, "tle": {"line1": "1 27438U 02027A   25355.48530191  .00000112  00000+0  00000+0 0  9998", "line2": "2 27438   6.3061  71.9555 0002688 203.6165 212.2349  1.00272793 49581"}}, "geometry": {"type": "Point", "coordinates": [41.285732432402476, -3.2173140728025453]}}, {"type": "Feature", "properties": {"norad_id": 27445, "name": "GALAXY 3C (G-3C)", "group": "intelsat", "lat": 0.19813494047157088, "lon": 83.43389306013678, "alt_km": 35784.89585690656, "timestamp": "2025-12-22T05:49:03.150060+00:00", "meta": {"OBJECT_NAME": "GALAXY 3C (G-3C)", "OBJECT_ID": "2002-030A", "EPOCH": "2025-12-21T16:35:41.356896", "MEAN_MOTION": 1.00271848, "ECCENTRICITY": 0.0001097, "INCLINATION": 3.2847, "RA_OF_ASC_NODE": 80.4122, "ARG_OF_PERICENTER": 78.5508, "MEAN_ANOMALY": 85.6093, "EPHEMERIS_TYPE": 0, "CLASSIFICATION_TYPE": "U", "NORAD_CAT_ID": 27445, "ELEMENT_SET_NO": 999, "REV_AT_EPOCH": 4471, "BSTAR": 0, "MEAN_MOTION_DOT": -1.32e-06, "MEAN_MOTION_DDOT": 0}, "tle": {"line1": "1 27445U 02030A   25355.69145089 -.00000132  00000+0  00000+0 0  9994", "line2": "2 27445   3.2847  80.4122 0001097  78.5508  85.6093  1.00271848 44713"}}, "geometry": {"type": "Point", "coordinates": [83.43389306013678, 0.19813494047157088]}}, {"type": "Feature", "properties": {"norad_id": 27513, "name": "INTELSAT 906 (IS-906)", "group": "intelsat", "lat": 1.1581915646417063, "lon": -117.53516041502985, "alt_km": 35763.07009493792, "timestamp": "2025-12-22T05:49:03.150073+00:00", "meta": {"OBJECT_NAME": "INTELSAT 906 (IS-906)", "OBJECT_ID": "2002-041A", "EPOCH": "2025-12-21T20:19:33.988224", "MEAN_MOTION": 1.00273099, "ECCENTRICITY": 0.0006306, "INCLINATION": 5.3527, "RA_OF_ASC_NODE": 75.1232, "ARG_OF_PERICENTER": 200.0655, "MEAN_ANOMALY": 184.499, "EPHEMERIS_TYPE": 0, "CLASSIFICATION_TYPE": "U", "NORAD_CAT_ID": 27513, "ELEMENT_SET_NO": 999, "REV_AT_EPOCH": 8525, "BSTAR": 0, "MEAN_MOTION_DOT": 3.1e-07, "MEAN_MOTION_DDOT": 0}, "tle": {"line1": "1 27513U 02041A   25355.84692116  .00000031  00000+0  00000+0 0  9994", "line2": "2 27513   5.3527  75.1232 0006306 200.0655 184.4990  1.00273099 85251"}}, "geometry": {"type": "Point", "coordinates": [-117.53516041502985, 1.1581915646417063]}}, {"type": "Feature", "properties": {"norad_id": 27954, "name": "GALAXY 13 (HORIZONS-1)", "group": "intelsat", "lat": -0.8054015711540152, "lon": 28.306848570528356, "alt_km": 35791.8990736892, "timestamp": "2025-12-22T05:49:03.150102+00:00", "meta": {"OBJECT_NAME": "GALAXY 13 (HORIZONS-1)", "OBJECT_ID": "2003-044A", "EPOCH": "2025-12-21T15:54:32.176224", "MEAN_MOTION": 1.00270324, "ECCENTRICITY": 0.0002372, "INCLINATION": 0.9596, "RA_OF_ASC_NODE": 86.3555, "ARG_OF_PERICENTER": 179.5653, "MEAN_ANOMALY": 273.168, "EPHEMERIS_TYPE": 0, "CLASSIFICATION_TYPE": "U", "NORAD_CAT_ID": 27954, "ELEMENT_SET_NO": 999, "REV_AT_EPOCH": 4479, "BSTAR": 0, "MEAN_MOTION_DOT": 1.54e-06, "MEAN_MOTION_DDOT": 0}, "tle": {"line1": "1 27954U 03044A   25355.66287241  .00000154  00000+0  00000+0 0  9992", "line2": "2 27954   0.9596  86.3555 0002372 179.5653 273.1680  1.00270324 44790"}}, "geometry": {"type": "Point", "coordinates": [28.306848570528356, -0.8054015711540152]}}, {"type": "Feature", "properties": {"norad_id": 28358, "name": "INTELSAT 10-02", "group": "intelsat", "lat": 0.019602997446360366, "lon": 177.33467906352865, "alt_km": 35789.03412025572, "timestamp": "2025-12-22T05:49:03.150116+00:00", "meta": {"OBJECT_NAME": "INTELSAT 10-02", "OBJECT_ID": "2004-022A", "EPOCH": "2025-12-21T18:19:41.702304", "MEAN_MOTION": 1.00271041, "ECCENTRICITY": 0.0001017, "INCLINATION": 0.0174, "RA_OF_ASC_NODE": 69.5331, "ARG_OF_PERICENTER": 238.1326, "MEAN_ANOMALY": 56.8754, "EPHEMERIS_TYPE": 0, "CLASSIFICATION_TYPE": "U", "NORAD_CAT_ID": 28358, "ELEMENT_SET_NO": 999, "REV_AT_EPOCH": 7877, "BSTAR": 0, "MEAN_MOTION_DOT": 1.2e-07, "MEAN_MOTION_DDOT": 0}, "tle": {"line1": "1 28358U 04022A   25355.76367711  .00000012  00000+0  00000+0 0  9993", "line2": "2 28358   0.0174  69.5331 0001017 238.1326  56.8754  1.00271041 78771"}}, "geometry": {"type": "Point", "coordinates": [177.33467906352865, 0.019602997446360366]}}, {"type": "Feature", "properties": {"norad_id": 28626, "name": "XM-3 (RHYTHM)", "group": "intelsat", "lat": 0.02683071398691946, "lon": -112.58609692395649, "alt_km": 36163.949036001024, "timestamp": "2025-12-22T05:49:03.150130+00:00", "meta": {"OBJECT_NAME": "XM-3 (RHYTHM)", "OBJECT_ID": "2005-008A", "EPOCH": "2025-12-21T19:45:53.868096", "MEAN_MOTION": 0.9894986, "ECCENTRICITY": 0.0002004, "INCLINATION": 0.1969, "RA_OF_ASC_NODE": 82.0313, "ARG_OF_PERICENTER": 277.3595, "MEAN_ANOMALY": 98.8435, "EPHEMERIS_TYPE": 0, "CLASSIFICATION_TYPE": "U", "NORAD_CAT_ID": 28626, "ELEMENT_SET_NO": 999, "REV_AT_EPOCH": 4084, "BSTAR": 0, "MEAN_MOTION_DOT": 9e-07, "MEAN_MOTION_DDOT": 0}, "tle": {"line1": "1 28626U 05008A   25355.82354014  .00000090  00000+0  00000+0 0  9991", "line2": "2 28626   0.1969  82.0313 0002004 277.3595  98.8435  0.98949860 40848"}}, "geometry": {"type": "Point", "coordinates": [-112.58609692395649, 0.02683071398691946]}}]}